OUTPOST MISSION 1       
1 56226U 23084BK  26068.97193801  .00102103  00000+0  83979-3 0  9993
2 56226  97.5968 222.1792 0004729 254.2575 105.8165 15.70083334153328
STARLINK-11361 [DTC]    
1 61585U 24187M   26068.91372366  .00184212  00000+0  14911-2 0  9991
2 61585  53.1569 295.2801 0000681  91.3930 268.7166 15.69721915 80788
