[{"OBJECT_NAME":"OUTPOST MISSION 1","OBJECT_ID":"2023-084BK","EPOCH":"2026-03-09T23:19:35.444064","MEAN_MOTION":15.70083334,"ECCENTRICITY":0.00047289,"INCLINATION":97.5968,"RA_OF_ASC_NODE":222.1792,"ARG_OF_PERICENTER":254.2575,"MEAN_ANOMALY":105.8165,"EPHEMERIS_TYPE":0,"CLASSIFICATION_TYPE":"U","NORAD_CAT_ID":56226,"ELEMENT_SET_NO":999,"REV_AT_EPOCH":15332,"BSTAR":0.000839791,"MEAN_MOTION_DOT":0.00102103,"MEAN_MOTION_DDOT":0},{"OBJECT_NAME":"STARLINK-11361 [DTC]","OBJECT_ID":"2024-187M","EPOCH":"2026-03-09T21:55:45.724224","MEAN_MOTION":15.69721915,"ECCENTRICITY":6.811e-5,"INCLINATION":53.1569,"RA_OF_ASC_NODE":295.2801,"ARG_OF_PERICENTER":91.393,"MEAN_ANOMALY":268.7166,"EPHEMERIS_TYPE":0,"CLASSIFICATION_TYPE":"U","NORAD_CAT_ID":61585,"ELEMENT_SET_NO":999,"REV_AT_EPOCH":8078,"BSTAR":0.0014910823,"MEAN_MOTION_DOT":0.00184212,"MEAN_MOTION_DDOT":0}]
